[
    {
        "Altitude(m)": 716188.1993016672,
        "Argument of Periapsis(deg)": 0.0022780242373254137,
        "Eccentricity": 0.0,
        "Inclination(deg)": 45.0,
        "Latitude(deg)": -41.05034028334385,
        "Longitude(deg)": -125.11526145767871,
        "Mean Anomaly(deg)": 247.76114332949615,
        "RAAN(deg)": 94.99784961170838,
        "Satellite Name": "Constellation 1 433",
        "Satellite Number": 433,
        "Semi-Major Axis(m)": 7083131.272910544,
        "Time(s)": 38
    },
    {
        "Altitude(m)": 716197.071067474,
        "Argument of Periapsis(deg)": 0.002337972243570819,
        "Eccentricity": 0.0,
        "Inclination(deg)": 45.0,
        "Latitude(deg)": -41.071768065138365,
        "Longitude(deg)": -125.04440149948218,
        "Mean Anomaly(deg)": 247.82184446974608,
        "RAAN(deg)": 94.9977930225428,
        "Satellite Name": "Constellation 1 433",
        "Satellite Number": 433,
        "Semi-Major Axis(m)": 7083131.272910544,
        "Time(s)": 39
    },
    {
        "Altitude(m)": 716205.9226303843,
        "Argument of Periapsis(deg)": 0.0023979202498162246,
        "Eccentricity": 0.0,
        "Inclination(deg)": 45.0,
        "Latitude(deg)": -41.093146954675504,
        "Longitude(deg)": -124.97349302294714,
        "Mean Anomaly(deg)": 247.88254560999596,
        "RAAN(deg)": 94.99773643337723,
        "Satellite Name": "Constellation 1 433",
        "Satellite Number": 433,
        "Semi-Major Axis(m)": 7083131.272910544,
        "Time(s)": 40
    },
    {
        "Altitude(m)": 716214.7539579853,
        "Argument of Periapsis(deg)": 0.00245786825606163,
        "Eccentricity": 0.0,
        "Inclination(deg)": 45.0,
        "Latitude(deg)": -41.114476884437984,
        "Longitude(deg)": -124.90253607095467,
        "Mean Anomaly(deg)": 247.94324675024583,
        "RAAN(deg)": 94.99767984421165,
        "Satellite Name": "Constellation 1 433",
        "Satellite Number": 433,
        "Semi-Major Axis(m)": 7083131.272910544,
        "Time(s)": 41
    },
    {
        "Altitude(m)": 716223.5650179393,
        "Argument of Periapsis(deg)": 0.002517816262307036,
        "Eccentricity": 0.0,
        "Inclination(deg)": 45.0,
        "Latitude(deg)": -41.13575778694937,
        "Longitude(deg)": -124.83153068689151,
        "Mean Anomaly(deg)": 248.0039478904957,
        "RAAN(deg)": 94.99762325504608,
        "Satellite Name": "Constellation 1 433",
        "Satellite Number": 433,
        "Semi-Major Axis(m)": 7083131.272910544,
        "Time(s)": 42
    },
    {
        "Altitude(m)": 716232.3557779863,
        "Argument of Periapsis(deg)": 0.0025777642685524413,
        "Eccentricity": 0.0,
        "Inclination(deg)": 45.0,
        "Latitude(deg)": -41.15698959477468,
        "Longitude(deg)": -124.76047691465119,
        "Mean Anomaly(deg)": 248.06464903074564,
        "RAAN(deg)": 94.99756666588053,
        "Satellite Name": "Constellation 1 433",
        "Satellite Number": 433,
        "Semi-Major Axis(m)": 7083131.272910544,
        "Time(s)": 43
    },
    {
        "Altitude(m)": 716241.126205935,
        "Argument of Periapsis(deg)": 0.002637712274797847,
        "Eccentricity": 0.0,
        "Inclination(deg)": 45.0,
        "Latitude(deg)": -41.1781722405211,
        "Longitude(deg)": -124.68937496673213,
        "Mean Anomaly(deg)": 248.12535017099555,
        "RAAN(deg)": 94.99751007671495,
        "Satellite Name": "Constellation 1 433",
        "Satellite Number": 433,
        "Semi-Major Axis(m)": 7083131.272910544,
        "Time(s)": 44
    },
    {
        "Altitude(m)": 716249.87626966,
        "Argument of Periapsis(deg)": 0.0026976602810432526,
        "Eccentricity": 0.0,
        "Inclination(deg)": 45.0,
        "Latitude(deg)": -41.199305656839385,
        "Longitude(deg)": -124.61822455184974,
        "Mean Anomaly(deg)": 248.18605131124542,
        "RAAN(deg)": 94.99745348754938,
        "Satellite Name": "Constellation 1 433",
        "Satellite Number": 433,
        "Semi-Major Axis(m)": 7083131.272910544,
        "Time(s)": 45
    },
    {
        "Altitude(m)": 716258.6059371228,
        "Argument of Periapsis(deg)": 0.0027576082872886585,
        "Eccentricity": 0.0,
        "Inclination(deg)": 45.0,
        "Latitude(deg)": -41.22038977642353,
        "Longitude(deg)": -124.54702588352066,
        "Mean Anomaly(deg)": 248.24675245149533,
        "RAAN(deg)": 94.9973968983838,
        "Satellite Name": "Constellation 1 433",
        "Satellite Number": 433,
        "Semi-Major Axis(m)": 7083131.272910544,
        "Time(s)": 46
    },
    {
        "Altitude(m)": 716267.3151763446,
        "Argument of Periapsis(deg)": 0.0028175562935340644,
        "Eccentricity": 0.0,
        "Inclination(deg)": 45.0,
        "Latitude(deg)": -41.241424532012324,
        "Longitude(deg)": -124.47577900767513,
        "Mean Anomaly(deg)": 248.30745359174526,
        "RAAN(deg)": 94.99734030921825,
        "Satellite Name": "Constellation 1 433",
        "Satellite Number": 433,
        "Semi-Major Axis(m)": 7083131.272910544,
        "Time(s)": 47
    },
    {
        "Altitude(m)": 716276.0039554307,
        "Argument of Periapsis(deg)": 0.00287750429977947,
        "Eccentricity": 0.0,
        "Inclination(deg)": 45.0,
        "Latitude(deg)": -41.262409856389795,
        "Longitude(deg)": -124.40448397075502,
        "Mean Anomaly(deg)": 248.36815473199516,
        "RAAN(deg)": 94.99728372005268,
        "Satellite Name": "Constellation 1 433",
        "Satellite Number": 433,
        "Semi-Major Axis(m)": 7083131.272910544,
        "Time(s)": 48
    },
    {
        "Altitude(m)": 716284.67224255,
        "Argument of Periapsis(deg)": 0.002937452306024875,
        "Eccentricity": 0.0,
        "Inclination(deg)": 45.0,
        "Latitude(deg)": -41.28334568238604,
        "Longitude(deg)": -124.3331408197148,
        "Mean Anomaly(deg)": 248.42885587224504,
        "RAAN(deg)": 94.9972271308871,
        "Satellite Name": "Constellation 1 433",
        "Satellite Number": 433,
        "Semi-Major Axis(m)": 7083131.272910544,
        "Time(s)": 49
    },
    {
        "Altitude(m)": 716293.3200059485,
        "Argument of Periapsis(deg)": 0.0029974003122702807,
        "Eccentricity": 0.0,
        "Inclination(deg)": 45.0,
        "Latitude(deg)": -41.304231942878054,
        "Longitude(deg)": -124.26174960202249,
        "Mean Anomaly(deg)": 248.48955701249494,
        "RAAN(deg)": 94.99717054172153,
        "Satellite Name": "Constellation 1 433",
        "Satellite Number": 433,
        "Semi-Major Axis(m)": 7083131.272910544,
        "Time(s)": 50
    },
    {
        "Altitude(m)": 716301.9472139493,
        "Argument of Periapsis(deg)": 0.0030573483185156866,
        "Eccentricity": 0.0,
        "Inclination(deg)": 45.0,
        "Latitude(deg)": -41.3250685707904,
        "Longitude(deg)": -124.19031036566058,
        "Mean Anomaly(deg)": 248.55025815274487,
        "RAAN(deg)": 94.99711395255598,
        "Satellite Name": "Constellation 1 433",
        "Satellite Number": 433,
        "Semi-Major Axis(m)": 7083131.272910544,
        "Time(s)": 51
    },
    {
        "Altitude(m)": 716310.5538349441,
        "Argument of Periapsis(deg)": 0.003117296324761092,
        "Eccentricity": 0.0,
        "Inclination(deg)": 45.0,
        "Latitude(deg)": -41.34585549909569,
        "Longitude(deg)": -124.11882332722475,
        "Mean Anomaly(deg)": 248.61095929299475,
        "RAAN(deg)": 94.9970573633904,
        "Satellite Name": "Constellation 1 433",
        "Satellite Number": 433,
        "Semi-Major Axis(m)": 7083131.272910544,
        "Time(s)": 52
    },
    {
        "Altitude(m)": 716319.1398373999,
        "Argument of Periapsis(deg)": 0.0031772443310064975,
        "Eccentricity": 0.0,
        "Inclination(deg)": 45.0,
        "Latitude(deg)": -41.36659266081651,
        "Longitude(deg)": -124.04728819953479,
        "Mean Anomaly(deg)": 248.6716604332446,
        "RAAN(deg)": 94.99700077422483,
        "Satellite Name": "Constellation 1 433",
        "Satellite Number": 433,
        "Semi-Major Axis(m)": 7083131.272910544,
        "Time(s)": 53
    },
    {
        "Altitude(m)": 716327.705189856,
        "Argument of Periapsis(deg)": 0.0032371923372519038,
        "Eccentricity": 0.0,
        "Inclination(deg)": 45.0,
        "Latitude(deg)": -41.38727998902452,
        "Longitude(deg)": -123.97570520022016,
        "Mean Anomaly(deg)": 248.7323615734945,
        "RAAN(deg)": 94.99694418505925,
        "Satellite Name": "Constellation 1 433",
        "Satellite Number": 433,
        "Semi-Major Axis(m)": 7083131.272910544,
        "Time(s)": 54
    },
    {
        "Altitude(m)": 716336.2498609289,
        "Argument of Periapsis(deg)": 0.0032971403434973088,
        "Eccentricity": 0.0,
        "Inclination(deg)": 45.0,
        "Latitude(deg)": -41.40791741684238,
        "Longitude(deg)": -123.9040743793309,
        "Mean Anomaly(deg)": 248.79306271374443,
        "RAAN(deg)": 94.99688759589368,
        "Satellite Name": "Constellation 1 433",
        "Satellite Number": 433,
        "Semi-Major Axis(m)": 7083131.272910544,
        "Time(s)": 55
    },
    {
        "Altitude(m)": 716344.7738193073,
        "Argument of Periapsis(deg)": 0.0033570883497427146,
        "Eccentricity": 0.0,
        "Inclination(deg)": 45.0,
        "Latitude(deg)": -41.428504877444105,
        "Longitude(deg)": -123.83239578743685,
        "Mean Anomaly(deg)": 248.85376385399434,
        "RAAN(deg)": 94.9968310067281,
        "Satellite Name": "Constellation 1 433",
        "Satellite Number": 433,
        "Semi-Major Axis(m)": 7083131.272910544,
        "Time(s)": 56
    }
]